POLYITAN-1              
1 40042U 14033AJ  26201.84519438  .00013839  00000+0  41822-3 0  9997
2 40042  98.0939 231.3187 0007386  47.4734 312.7130 15.34345440658759
TIGRISAT                
1 40043U 14033AK  26201.93621533  .00000961  00000+0  11613-3 0  9995
2 40043  97.7873 351.1843 0048182 325.2166  34.5902 14.85259956650634
AEROCUBE 6A             
1 40045U 14033AM  26200.94905882  .00003519  00000+0  29632-3 0  9991
2 40045  97.7268   7.5592 0036108 264.4849  95.2254 14.98375370651520
AEROCUBE 6B             
1 40046U 14033AN  26201.92028235  .00003710  00000+0  30007-3 0  9990
2 40046  97.7208   8.3775 0038228 249.8960 109.8147 14.99831531651815
CANX-4                  
1 40055U 14034C   26201.92651204  .00000505  00000+0  72017-4 0  9996
2 40055  98.3075  78.4714 0011372 262.2011  97.7910 14.81317179649528
CANX-5                  
1 40056U 14034D   26201.92455097  .00000507  00000+0  72271-4 0  9993
2 40056  98.3078  78.5149 0011376 262.4767  97.5152 14.81334525640339
UKUBE-1                 
1 40074U 14037F   26201.94528830  .00005701  00000+0  31823-3 0  9992
2 40074  98.4253 208.7782 0003153  78.4242 281.7341 15.14005396653667
BRITE-PL2 (HEWELIUSZ)   
1 40119U 14049B   26201.84642044  .00001155  00000+0  11183-3 0  9994
2 40119  97.9121 314.1126 0013781   3.8262 356.3061 14.94696779646478
AEROCUBE 5C             
1 40965U 15058B   26201.49450712  .00002156  00000+0  19604-3 0  9992
2 40965  64.7663 158.9594 0132750  50.4146 310.8601 14.91597637370626
AEROCUBE 7              
1 40966U 15058C   26201.92973914  .00003562  00000+0  28655-3 0  9993
2 40966  64.7618 139.1079 0122444  48.5671 312.5885 14.95949537371006
FOX-1A (AO-85)          
1 40967U 15058D   26201.28466239  .00001929  00000+0  17930-3 0  9999
2 40967  64.7727 176.1140 0132783  43.8857 317.2710 14.91108157118503
SINOD-D 1               
1 40968U 15058E   26201.30211495  .00003176  00000+0  25651-3 0  9990
2 40968  64.7742 155.1914 0121489  40.2216 320.7809 14.96119091121616
SNAP-3 ALICE            
1 40970U 15058G   26201.79947434  .00107719  00000+0  92627-3 0  9990
2 40970  64.7499 346.9938 0025974 344.9171  15.1201 15.68328334122142
LMRST-SAT               
1 40971U 15058H   26201.31556586  .00001839  00000+0  17278-3 0  9998
2 40971  64.7735 172.4195 0134311  45.8734 315.3331 14.90722607118498
SNAP-3 EDDIE            
1 40972U 15058J   26201.76193837  .00122926  00000+0  99024-3 0  9994
2 40972  64.7408 337.5871 0027051 347.3948  12.6523 15.69813976124281
PROPCUBE 3              
1 40973U 15058K   26201.93849778  .00003224  00000+0  26894-3 0  9990
2 40973  64.7679 147.0676 0126221  46.8178 314.3399 14.94447460119841
BISONSAT                
1 40974U 15058L   26201.92614348  .00009362  00000+0  44087-3 0  9996
2 40974  64.7583  64.4840 0082656  33.3744 327.2552 15.17025170120734
SNAP-3 JIMI             
1 40975U 15058M   26201.13692353  .00004266  00000+0  29334-3 0  9998
2 40975  64.7643 115.4924 0108222  42.4177 318.5241 15.02651100119177
PROPCUBE 1 (FLORA)      
1 40976U 15058N   26201.97244437  .00001887  00000+0  18387-3 0  9999
2 40976  64.7718 190.5143 0132904  47.8987 313.3333 14.89348635121291
SINOD-D 3               
1 40977U 15058P   26201.90866375  .00003317  00000+0  28121-3 0  9991
2 40977  64.7712 170.5005 0121521  44.9477 316.1395 14.94204989119796
RAVAN                   
1 41849U 16067B   26201.22031252  .00034088  00000+0  45835-3 0  9994
2 41849  97.9827  94.6874 0002888 193.5482 166.5694 15.57823305532833
CELTEE 1                
1 41850U 16067C   26200.59937670  .00002504  00000+0  12003-3 0  9993
2 41850  98.0629  69.3765 0002435 104.1559 255.9945 15.19964565530805
OPTICUBE 04             
1 41851U 16067D   26201.41717668  .00001205  00000+0  78858-4 0  9997
2 41851  98.0671  55.4321 0015760  10.9128 349.2439 15.09784034530184
AEROCUBE 8D             
1 41852U 16067E   26201.89006383  .00005027  00000+0  20585-3 0  9994
2 41852  98.0635  74.6276 0004233  42.1068 318.0492 15.24818070531202
AEROCUBE 8C             
1 41853U 16067F   26201.90946733  .00005208  00000+0  21152-3 0  9991
2 41853  98.0509  71.8333 0003851 318.3427  41.7515 15.25072158531204
CORVUS BC2              
1 42846U 17042X   26201.93899928  .00001976  00000+0  13770-3 0  9999
2 42846  97.4097   1.9868 0012844   3.2207 356.9102 15.06474935492147
CORVUS BC1              
1 42847U 17042Y   26201.92990312  .00002317  00000+0  16014-3 0  9992
2 42847  97.4130   2.8140 0011079 339.4698  20.6083 15.06641199492170
MAKERSAT 0              
1 43016U 17073D   26201.47765744  .00012875  00000+0  33826-3 0  9994
2 43016  97.4572  84.2716 0105716 153.5455 207.1240 15.33132517471566
SIRION PATHFINDER-2     
1 43759U 18099B   26201.08076455  .00002733  00000+0  15058-3 0  9997
2 43759  97.4233 249.3587 0008997 174.6217 185.5114 15.14800599417602
CORVUS BC4              
1 43767U 18099K   26201.92599571  .00003077  00000+0  17921-3 0  9991
2 43767  97.4049 243.9203 0006811 236.2834 123.7749 15.12728610417502
